{
  "norad_id": 54007,
  "name": "STARLINK-5132",
  "history": [
    {
      "epoch": "2026-03-28T13:00:27.721728Z",
      "apogee_km": 540.6346460627165,
      "perigee_km": 538.6686105345543,
      "latitude_deg": 1.6697073750310305e-05,
      "longitude_deg": 108.05876215250703,
      "height_km": 540.4315945561247,
      "semi_major_axis_km": 6917.788628298636,
      "eccentricity": 0.0001421,
      "inclination_deg": 53.2151,
      "raan_deg": 129.1352,
      "arg_perigee_deg": 83.2562,
      "mean_anomaly_deg": 276.8592,
      "mean_motion_rev_day": 15.08870021
    },
    {
      "epoch": "2026-03-30T01:34:19.447968Z",
      "apogee_km": 540.2767107679447,
      "perigee_km": 539.1172817901679,
      "latitude_deg": -5.40610116691123e-06,
      "longitude_deg": -88.74892512944973,
      "height_km": 540.4488869052242,
      "semi_major_axis_km": 6917.833996279056,
      "eccentricity": 8.38e-05,
      "inclination_deg": 53.214,
      "raan_deg": 122.2947,
      "arg_perigee_deg": 75.5966,
      "mean_anomaly_deg": 284.5119,
      "mean_motion_rev_day": 15.08855178
    }
  ]
}